#cP2012 11 20  0  0  0.00000000     288 u+U   IGb08 FIT  TUM
## 1715 172800.00000000   300.00000000 56251 0.0000000000000
+    3   J01E11E12  0  0  0  0  0  0  0  0  0  0  0  0  0  0
+          0  0  0  0  0  0  0  0  0  0  0  0  0  0  0  0  0
+          0  0  0  0  0  0  0  0  0  0  0  0  0  0  0  0  0
+          0  0  0  0  0  0  0  0  0  0  0  0  0  0  0  0  0
+          0  0  0  0  0  0  0  0  0  0  0  0  0  0  0  0  0
++         4  0  0  0  0  0  0  0  0  0  0  0  0  0  0  0  0
++         0  0  0  0  0  0  0  0  0  0  0  0  0  0  0  0  0
++         0  0  0  0  0  0  0  0  0  0  0  0  0  0  0  0  0
++         0  0  0  0  0  0  0  0  0  0  0  0  0  0  0  0  0
++         0  0  0  0  0  0  0  0  0  0  0  0  0  0  0  0  0
%c E  cc GPS ccc cccc cccc cccc cccc ccccc ccccc ccccc ccccc
%c cc cc ccc ccc cccc cccc cccc cccc ccccc ccccc ccccc ccccc
%f  1.2500000  1.025000000  0.00000000000  0.000000000000000
%f  0.0000000  0.000000000  0.00000000000  0.000000000000000
%i    0    0    0    0      0      0      0      0         0
%i    0    0    0    0      0      0      0      0         0
/* Galileo+QZSS orbits for MGEX based on CONGO+MGEX data    
/* Technische Universitaet Muenchen (TUM)                   
/* Further information: www.iapg.bv.tum.de/mgex             
/* PCV:IGS08_1645 OL/AL:FES2004  NONE     YN ORB:CoN CLK:CoN
*  2012 11 20  0  0  0.00000000
PJ01 -31367.223780  27988.422852   8699.080871    351.450978
PE11   2271.143308 -22536.952367 -19059.332711    610.881545
PE12  15280.795435  -7660.445274 -24165.569688    546.994168
*  2012 11 20  0  5  0.00000000
PJ01 -31180.326850  28114.646771   9269.755569    351.450971
PE11   2566.473182 -22036.184854 -19599.880890    610.997506
PE12  15658.718136  -7040.320558 -24112.320397    547.019653
*  2012 11 20  0 10  0.00000000
PJ01 -30988.918934  28233.358314   9836.246078    351.451014
PE11   2881.539384 -21528.847386 -20113.326785    611.113432
PE12  16049.385069  -6430.644517 -24025.722097    547.045198
*  2012 11 20  0 15  0.00000000
PJ01 -30793.389843  28344.429676  10398.316822    351.451104
PE11   3216.315653 -21016.262287 -20598.960880    611.229376
PE12  16451.961951  -5832.508092 -23905.894820    547.070746
*  2012 11 20  0 20  0.00000000
PJ01 -30594.132831  28447.749637  10955.736237    351.451123
PE11   3570.700012 -20499.753776 -21056.112127    611.345369
PE12  16865.557038  -5246.954002 -23753.004533    547.096279
*  2012 11 20  0 25  0.00000000
PJ01 -30391.543861  28543.223616  11508.276779    351.451148
PE11   3944.514876 -19980.643466 -21484.148862    611.461322
PE12  17289.224115  -4674.973361 -23567.262906    547.121810
*  2012 11 20  0 30  0.00000000
PJ01 -30186.020876  28630.773702  12055.714958    351.451224
PE11   4337.507433 -19460.245856 -21882.479679    611.577266
PE12  17721.965680  -4117.502456 -23348.927021    547.147361
*  2012 11 20  0 35  0.00000000
PJ01 -29977.963065  28710.338662  12597.831343    351.451242
PE11   4749.350267 -18939.863875 -22250.554238    611.693187
PE12  18162.736306  -3575.419743 -23098.299015    547.172889
*  2012 11 20  0 40  0.00000000
PJ01 -29767.770143  28781.873910  13134.410587    351.451237
PE11   5179.642274 -18420.784452 -22587.864026    611.809129
PE12  18610.446187  -3049.543028 -22815.725660    547.198412
*  2012 11 20  0 45  0.00000000
PJ01 -29555.841632  28845.351449  13665.241426    351.451373
PE11   5627.909802 -17904.274162 -22893.943052    611.925061
PE12  19063.964822  -2540.626874 -22501.597892    547.223943
*  2012 11 20  0 50  0.00000000
PJ01 -29342.576152  28900.759783  14190.116696    351.451393
PE11   6093.608078 -17391.574930 -23168.368491    612.041008
PE12  19522.124869  -2049.360217 -22156.350258    547.249464
*  2012 11 20  0 55  0.00000000
PJ01 -29128.370722  28948.103811  14708.833335    351.451398
PE11   6576.122860 -16883.899836 -23410.761260    612.156947
PE12  19983.726110  -1576.364220 -21780.460327    547.275003
*  2012 11 20  1  0  0.00000000
PJ01 -28913.620068  28987.404671  15221.192383    351.451441
PE11   7074.772349 -16382.429026 -23620.786541    612.272932
PE12  20447.539544  -1122.190370 -21374.448027    547.300534
*  2012 11 20  1  5  0.00000000
PJ01 -28698.715938  29018.699584  15726.998989    351.451528
PE11   7588.809326 -15888.305729 -23798.154240    612.388977
PE12  20912.311591   -687.318804 -20938.874923    547.326086
*  2012 11 20  1 10  0.00000000
PJ01 -28484.046441  29042.041650  16226.062398    351.451504
PE11   8117.423529 -15402.632425 -23942.619387    612.505068
PE12  21376.768366   -272.156904 -20474.343449    547.351552
*  2012 11 20  1 15  0.00000000
PJ01 -28269.995377  29057.499634  16718.195961    351.451520
PE11   8659.744247 -14926.467135 -24053.982467    612.620987
PE12  21839.620055    122.961872 -19981.496069    547.377109
*  2012 11 20  1 20  0.00000000
PJ01 -28056.941610  29065.157706  17203.217116    351.451608
PE11   9214.843125 -14460.819896 -24132.089699    612.736852
PE12  22299.565322    497.778888 -19461.014399    547.402684
*  2012 11 20  1 25  0.00000000
PJ01 -27845.258425  29065.115181  17680.947390    351.451610
PE11   9781.737183 -14006.649384 -24176.833243    612.852830
PE12  22755.295787    852.110968 -18913.618253    547.428204
*  2012 11 20  1 30  0.00000000
PJ01 -27635.312920  29057.486220  18151.212382    351.451611
PE11  10359.392005 -13564.859735 -24188.151348    612.968795
PE12  23205.500506   1185.850774 -18340.064667    547.453763
*  2012 11 20  1 35  0.00000000
PJ01 -27427.465408  29042.399510  18613.841759    351.451665
PE11  10946.725137 -13136.297548 -24166.028440    613.084732
PE12  23648.870490   1498.966912 -17741.146835    547.479307
*  2012 11 20  1 40  0.00000000
PJ01 -27222.068829  29019.997921  19068.669241    351.451709
PE11  11542.609636 -12721.749100 -24110.495138    613.200701
PE12  24084.103206   1791.503784 -17117.693025    547.504860
*  2012 11 20  1 45  0.00000000
PJ01 -27019.468191  28990.438151  19515.532583    351.451685
PE11  12145.877776 -12321.937775 -24021.628213    613.316651
PE12  24509.907056   2063.581153 -16470.565438    547.530387
*  2012 11 20  1 50  0.00000000
PJ01 -26820.000020  28953.890336  19954.273570    351.451757
PE11  12755.324918 -11937.521707 -23899.550484    613.432605
PE12  24925.005841   2315.393474 -15800.659005    547.555936
*  2012 11 20  1 55  0.00000000
PJ01 -26623.991835  28910.537646  20384.737990    351.451806
PE11  13369.713484 -11569.091660 -23744.430647    613.548567
PE12  25328.143152   2547.208937 -15108.900164    547.581462
*  2012 11 20  2  0  0.00000000
PJ01 -26431.761631  28860.575870  20806.775628    351.451778
PE11  13987.777072 -11217.169145 -23556.483045    613.664483
PE12  25718.086716   2759.368269 -14396.245573    547.606977
*  2012 11 20  2  5  0.00000000
PJ01 -26243.617401  28804.212964  21220.240242    351.451805
PE11  14608.224659 -10882.204782 -23335.967371    613.780434
PE12  26093.632651   2952.283275 -13663.680788    547.632504
*  2012 11 20  2 10  0.00000000
PJ01 -26059.856654  28741.668604  21624.989547    351.451919
PE11  15229.744901 -10564.576909 -23083.188312    613.896406
PE12  26453.609629   3126.435132 -12912.218904    547.658028
*  2012 11 20  2 15  0.00000000
PJ01 -25880.765980  28673.173704  22020.885196    351.451912
PE11  15851.010502 -10264.590450 -22798.495131    614.012377
PE12  26796.882928   3282.372441 -12142.899158    547.683542
*  2012 11 20  2 20  0.00000000
PJ01 -25706.620611  28598.969928  22407.792759    351.451929
PE11  16470.682644  -9982.476037 -22482.281186    614.128284
PE12  27122.358365   3420.709046 -11356.785484    547.709071
*  2012 11 20  2 25  0.00000000
PJ01 -25537.684020  28519.309187  22785.581709    351.452022
PE11  17087.415460  -9718.389399 -22134.983389    614.244236
PE12  27428.986091   3542.121613 -10554.965049    547.734585
*  2012 11 20  2 30  0.00000000
PJ01 -25374.207545  28434.453110  23154.125395    351.452033
PE11  17699.860533  -9472.411008 -21757.081608    614.360242
PE12  27715.764227   3647.347013  -9738.546752    547.760129
*  2012 11 20  2 35  0.00000000
PJ01 -25216.430015  28344.672527  23513.301027    351.452038
PE11  18306.671413  -9244.546001 -21349.098003    614.476235
PE12  27981.742350   3737.179469  -8908.659681    547.785657
*  2012 11 20  2 40  0.00000000
PJ01 -25064.577423  28250.246912  23862.989651    351.452091
PE11  18906.508116  -9034.724355 -20911.596314    614.592212
PE12  28226.024796   3812.467515  -8066.451566    547.811200
*  2012 11 20  2 45  0.00000000
PJ01 -24918.862607  28151.463830  24203.076133    351.452169
PE11  19498.041627  -8842.801333 -20445.181078    614.708169
PE12  28447.773773   3874.110774  -7213.087175    547.836712
*  2012 11 20  2 50  0.00000000
PJ01 -24779.484960  28048.618378  24533.449135    351.452156
PE11  20079.958343  -8668.558194 -19950.496806    614.824100
PE12  28646.212290   3923.056537  -6349.746722    547.862230
*  2012 11 20  2 55  0.00000000
PJ01 -24646.630161  27942.012600  24854.001098    351.452233
PE11  20650.964485  -8511.703163 -19428.227089    614.940051
PE12  28820.626859   3960.296191  -5477.624214    547.887779
*  2012 11 20  3  0  0.00000000
PJ01 -24520.469934  27831.954910  25164.628214    351.452297
PE11  21209.790433  -8371.872654 -18879.093663    615.056066
PE12  28970.369995   3986.861490  -4597.925819    547.913303
*  2012 11 20  3  5  0.00000000
PJ01 -24401.161829  27718.759499  25465.230418    351.452286
PE11  21755.194989  -8248.632753 -18303.855412    615.172030
PE12  29094.862487   4003.820684  -3711.868181    547.938834
*  2012 11 20  3 10  0.00000000
PJ01 -24288.849021  27602.745737  25755.711355    351.452356
PE11  22285.969534  -8141.480940 -17703.307324    615.287987
PE12  29193.595425   4012.274518  -2820.676746    547.964344
*  2012 11 20  3 15  0.00000000
PJ01 -24183.660148  27484.237567  26035.978368    351.452409
PE11  22800.942085  -8049.848063 -17078.279401    615.403979
PE12  29266.131999   4013.352126  -1925.584067    547.989878
EOF
